NORAD_CAT_ID,OBJECT_NAME,OBJECT_TYPE,EPOCH,MEAN_MOTION,ECCENTRICITY,INCLINATION,RA_OF_ASC_NODE,ARG_OF_PERICENTER,MEAN_ANOMALY,BSTAR,MEAN_MOTION_DOT,MEAN_MOTION_DDOT,TLE_LINE0,TLE_LINE1,TLE_LINE2,SEMIMAJOR_AXIS,PERIOD,APOGEE,PERIGEE,DECAYED
52297.0,STARLINK-3758,PAYLOAD,2022-11-15 22:40:18,15.08839935,0.0002097,53.2167,129.8726,41.6879,318.4273,0.00012623,1.721e-05,0.0,0 STARLINK-3758,1 52297U 22041AN  22319.94465423  .00001721  00000-0  12623-3 0  9996,2 52297  53.2167 129.8726 0002097  41.6879 318.4273 15.08839935 33093,6917.880999999999,95.438,541.196,538.295,0.0
52297.0,STARLINK-3758,PAYLOAD,2022-11-16 11:23:22,15.08844898,0.000212,53.2167,127.4937,42.2902,317.8253,0.00013062,1.791e-05,0.0,0 STARLINK-3758,1 52297U 22041AN  22320.47457056  .00001791  00000-0  13062-3 0  9994,2 52297  53.2167 127.4937 0002120  42.2902 317.8253 15.08844898 31950,6917.865,95.437,541.197,538.264,0.0
52297.0,STARLINK-3758,PAYLOAD,2022-11-16 17:44:55,15.08850054,0.0002037,53.2167,126.3037,43.5143,316.601,0.00012627,1.723e-05,0.0,0 STARLINK-3758,1 52297U 22041AN  22320.73952628  .00001723  00000-0  12627-3 0  9999,2 52297  53.2167 126.3037 0002037  43.5143 316.6010 15.08850054 33217,6917.85,95.437,541.124,538.305,0.0
52297.0,STARLINK-3758,PAYLOAD,2022-11-17 17:35:43,15.08828049,0.0001986,53.2181,121.8435,40.5845,319.5295,-2.3884e-05,-6.68e-06,0.0,0 STARLINK-3758,1 52297U 22041AN  22321.73314573 -.00000668  00000-0 -23884-4 0  9998,2 52297  53.2181 121.8435 0001986  40.5845 319.5295 15.08828049 33365,6917.917,95.438,541.156,538.408,0.0
52297.0,STARLINK-3758,PAYLOAD,2022-11-17 22:21:52,15.08840812,0.0002045,53.2169,120.9511,43.2114,316.9038,-9.7006e-06,-4.43e-06,0.0,0 STARLINK-3758,1 52297U 22041AN  22321.93185693 -.00000443  00000-0 -97006-5 0  9998,2 52297  53.2169 120.9511 0002045  43.2114 316.9038 15.08840812 33393,6917.878000000002,95.438,541.158,538.328,0.0
52297.0,STARLINK-3758,PAYLOAD,2022-11-18 15:51:08,15.08829076,0.0002146,53.2166,117.6801,48.258,311.8595,-0.0001269,-2.307e-05,0.0,0 STARLINK-3758,1 52297U 22041AN  22322.66051137 -.00002307  00000-0 -12690-3 0  9999,2 52297  53.2166 117.6801 0002146  48.2580 311.8595 15.08829076 33503,6917.9140000000025,95.438,541.263,538.294,0.0
52297.0,STARLINK-3758,PAYLOAD,2022-11-18 22:12:40,15.08833761,0.0001939,53.2167,116.4894,50.8831,309.2333,-0.00010963,-2.032e-05,0.0,0 STARLINK-3758,1 52297U 22041AN  22322.92546785 -.00002032  00000-0 -10963-3 0  9992,2 52297  53.2167 116.4894 0001939  50.8831 309.2333 15.08833761 33541,6917.899,95.438,541.106,538.423,0.0
52297.0,STARLINK-3758,PAYLOAD,2022-11-19 09:20:22,15.088161499999998,0.0002046,53.2177,114.4088,51.5616,308.5559,0.00021447,3.125e-05,0.0,0 STARLINK-3758,1 52297U 22041AN  22323.38915132  .00003125  00000-0  21447-3 0  9990,2 52297  53.2177 114.4088 0002046  51.5616 308.5559 15.08816150 32391,6917.953,95.439,541.234,538.403,0.0
52297.0,STARLINK-3758,PAYLOAD,2022-11-19 18:52:41,15.08835502,0.0002159,53.2171,112.6252,43.3596,316.7566,5.8569e-05,6.44e-06,0.0,0 STARLINK-3758,1 52297U 22041AN  22323.78658832  .00000644  00000-0  58569-4 0  9994,2 52297  53.2171 112.6252 0002159  43.3596 316.7566 15.08835502 32457,6917.894,95.438,541.253,538.266,0.0
52297.0,STARLINK-3758,PAYLOAD,2022-11-20 02:49:36,15.08839764,0.0002153,53.2174,111.1386,41.5215,318.5941,8.3421e-05,1.04e-05,0.0,0 STARLINK-3758,1 52297U 22041AN  22324.11778580  .00001040  00000-0  83421-4 0  9991,2 52297  53.2174 111.1386 0002153  41.5215 318.5941 15.08839764 33726,6917.880999999999,95.438,541.236,538.257,0.0
52297.0,STARLINK-3758,PAYLOAD,2022-11-20 09:11:08,15.08850414,0.0002277,53.2173,109.949,40.899,319.2173,1.4169e-06,-2.66e-06,0.0,0 STARLINK-3758,1 52297U 22041AN  22324.38274221 -.00000266  00000-0  14169-5 0  9997,2 52297  53.2173 109.9490 0002277  40.8990 319.2173 15.08850414 32544,6917.849,95.437,541.289,538.138,0.0
52297.0,STARLINK-3758,PAYLOAD,2022-11-20 20:18:50,15.08845969,0.0002223,53.2175,107.8676,41.1922,318.9238,0.00019315,2.788e-05,0.0,0 STARLINK-3758,1 52297U 22041AN  22324.84642186  .00002788  00000-0  19315-3 0  9993,2 52297  53.2175 107.8676 0002223  41.1922 318.9238 15.08845969 32614,6917.861999999999,95.437,541.265,538.189,0.0
52297.0,STARLINK-3758,PAYLOAD,2022-11-21 10:37:19,15.08841984,0.0002264,53.2172,105.1911,42.6817,317.4351,0.00013552,1.869e-05,0.0,0 STARLINK-3758,1 52297U 22041AN  22325.44258729  .00001869  00000-0  13552-3 0  9992,2 52297  53.2172 105.1911 0002264  42.6817 317.4351 15.08841984 33926,6917.874,95.437,541.306,538.173,0.0
52297.0,STARLINK-3758,PAYLOAD,2022-11-21 16:58:51,15.08847093,0.000226,53.2178,104.0017,42.5622,317.5545,0.00010854,1.44e-05,0.0,0 STARLINK-3758,1 52297U 22041AN  22325.70754332  .00001440  00000-0  10854-3 0  9999,2 52297  53.2178 104.0017 0002260  42.5622 317.5545 15.08847093 32748,6917.859,95.437,541.2869999999998,538.16,0.0
52297.0,STARLINK-3758,PAYLOAD,2022-11-22 08:52:42,15.08855462,0.0002279,53.2184,101.0288,43.8512,316.2661,9.6466e-05,1.248e-05,0.0,0 STARLINK-3758,1 52297U 22041AN  22326.36993404  .00001248  00000-0  96466-4 0  9997,2 52297  53.2184 101.0288 0002279  43.8512 316.2661 15.08855462 34065,6917.833000000001,95.437,541.275,538.122,0.0
52297.0,STARLINK-3758,PAYLOAD,2022-11-22 15:14:15,15.08852136,0.000232,53.2185,99.8393,43.57,316.5475,5.656e-05,6.12e-06,0.0,0 STARLINK-3758,1 52297U 22041AN  22326.63489631  .00000612  00000-0  56560-4 0  9994,2 52297  53.2185  99.8393 0002320  43.5700 316.5475 15.08852136 32889,6917.843000000003,95.437,541.313,538.1030000000002,0.0
52297.0,STARLINK-3758,PAYLOAD,2022-11-22 21:35:47,15.08847059,0.0002324,53.2181,98.6494,42.8432,317.2741,-2.2045e-06,-3.23e-06,0.0,0 STARLINK-3758,1 52297U 22041AN  22326.89985863 -.00000323  00000-0 -22045-5 0  9993,2 52297  53.2181  98.6494 0002324  42.8432 317.2741 15.08847059 34145,6917.859,95.437,541.332,538.116,0.0
52297.0,STARLINK-3758,PAYLOAD,2022-11-23 08:43:29,15.08848199,0.0002276,53.2181,96.5677,40.2336,319.8825,-2.3077e-05,-6.56e-06,0.0,0 STARLINK-3758,1 52297U 22041AN  22327.36353602 -.00000656  00000-0 -23077-4 0  9990,2 52297  53.2181  96.5677 0002276  40.2336 319.8825 15.08848199 32994,6917.855,95.437,541.295,538.146,0.0
52297.0,STARLINK-3758,PAYLOAD,2022-11-23 15:05:02,15.08835727,0.0001951,53.2185,95.3772,39.2254,320.888,7.6864e-05,9.35e-06,0.0,0 STARLINK-3758,1 52297U 22041AN  22327.62850107  .00000935  00000-0  76864-4 0  9991,2 52297  53.2185  95.3772 0001951  39.2254 320.8880 15.08835727 34254,6917.893,95.438,541.1080000000002,538.409,0.0
52297.0,STARLINK-3758,PAYLOAD,2022-11-24 08:34:16,15.08840153,0.0002039,53.2183,92.1069,37.4826,322.6308,5.1893e-05,5.38e-06,0.0,0 STARLINK-3758,1 52297U 22041AN  22328.35713721  .00000538  00000-0  51893-4 0  9996,2 52297  53.2183  92.1069 0002039  37.4826 322.6308 15.08840153 33140,6917.88,95.438,541.155,538.3340000000002,0.0
52297.0,STARLINK-3758,PAYLOAD,2022-11-24 13:20:25,15.08843871,0.0002101,53.2179,91.2153,37.0518,323.0619,9.064e-05,1.155e-05,0.0,0 STARLINK-3758,1 52297U 22041AN  22328.55585359  .00001155  00000-0  90640-4 0  9991,2 52297  53.2179  91.2153 0002101  37.0518 323.0619 15.08843871 34391,6917.869000000002,95.437,541.187,538.28,0.0
52297.0,STARLINK-3758,PAYLOAD,2022-11-25 11:35:49,15.08840125,0.0002183,53.2176,87.0524,37.2489,322.8654,0.00012755,1.742e-05,0.0,0 STARLINK-3758,1 52297U 22041AN  22329.48321426  .00001742  00000-0  12755-3 0  9999,2 52297  53.2176  87.0524 0002183  37.2489 322.8654 15.08840125 33318,6917.88,95.438,541.255,538.235,0.0
52297.0,STARLINK-3758,PAYLOAD,2022-11-25 14:46:35,15.08841729,0.0002207,53.2176,86.4579,36.647,323.4672,0.00013921,1.928e-05,0.0,0 STARLINK-3758,1 52297U 22041AN  22329.61569325  .00001928  00000-0  13921-3 0  9998,2 52297  53.2176  86.4579 0002207  36.6470 323.4672 15.08841729 34556,6917.875,95.437,541.2669999999998,538.2130000000002,0.0
52297.0,STARLINK-3758,PAYLOAD,2022-11-26 11:26:36,15.08847347,0.000222,53.2177,82.5924,36.337,323.7772,8.7309e-05,1.102e-05,0.0,0 STARLINK-3758,1 52297U 22041AN  22330.47680835  .00001102  00000-0  87309-4 0  9990,2 52297  53.2177  82.5924 0002220  36.3370 323.7772 15.08847347 33464,6917.858,95.437,541.259,538.187,0.0
52297.0,STARLINK-3758,PAYLOAD,2022-11-26 17:48:08,15.08849476,0.0002233,53.2179,81.4029,35.2534,324.8605,7.9978e-05,9.85e-06,0.0,0 STARLINK-3758,1 52297U 22041AN  22330.74176590  .00000985  00000-0  79978-4 0  9999,2 52297  53.2179  81.4029 0002233  35.2534 324.8605 15.08849476 34726,6917.851,95.437,541.261,538.172,0.0
52297.0,STARLINK-3758,PAYLOAD,2022-11-27 08:06:37,15.08838543,0.000226,53.2182,78.7258,33.8022,326.3114,-2.5216e-05,-6.900000000000003e-06,0.0,0 STARLINK-3758,1 52297U 22041AN  22331.33793417 -.00000690  00000-0 -25216-4 0  9999,2 52297  53.2182  78.7258 0002260  33.8022 326.3114 15.08838543 34814,6917.885,95.438,541.313,538.186,0.0
52297.0,STARLINK-3758,PAYLOAD,2022-11-27 16:03:33,15.08834753,0.000231,53.2183,77.23899999999998,33.9625,326.1515,-7.114e-05,-1.42e-05,0.0,0 STARLINK-3758,1 52297U 22041AN  22331.66913775 -.00001420  00000-0 -71140-4 0  9995,2 52297  53.2183  77.2390 0002310  33.9625 326.1515 15.08834753 33644,6917.896,95.438,541.359,538.163,0.0
52297.0,STARLINK-3758,PAYLOAD,2022-11-28 15:54:20,15.0883532,0.0002394,53.2187,72.7785,33.9734,326.1411,-5.2577e-05,-1.125e-05,0.0,0 STARLINK-3758,1 52297U 22041AN  22332.66273864 -.00001125  00000-0 -52577-4 0  9999,2 52297  53.2187  72.7785 0002394  33.9734 326.1411 15.08835320 35018,6917.895,95.438,541.4159999999998,538.104,0.0
52297.0,STARLINK-3758,PAYLOAD,2022-11-29 07:48:11,15.08839881,0.0002319,53.2185,69.8052,33.4477,326.6661,0.00014541,2.027e-05,0.0,0 STARLINK-3758,1 52297U 22041AN  22333.32512977  .00002027  00000-0  14541-3 0  9992,2 52297  53.2185  69.8052 0002319  33.4477 326.6661 15.08839881 35115,6917.880999999999,95.438,541.35,538.141,0.0
